[{"OBJECT_NAME":"STARLINK-36953","OBJECT_ID":"2026-039AA","EPOCH":"2026-03-06T06:00:02.000160","MEAN_MOTION":15.97787095,"ECCENTRICITY":0.00016107,"INCLINATION":42.9975,"RA_OF_ASC_NODE":76.1109,"ARG_OF_PERICENTER":266.6188,"MEAN_ANOMALY":287.9572,"EPHEMERIS_TYPE":0,"CLASSIFICATION_TYPE":"U","NORAD_CAT_ID":68010,"ELEMENT_SET_NO":999,"REV_AT_EPOCH":232,"BSTAR":-0.0030952218,"MEAN_MOTION_DOT":-0.01450188,"MEAN_MOTION_DDOT":0.00063209928},{"OBJECT_NAME":"STARLINK-36991","OBJECT_ID":"2026-039AB","EPOCH":"2026-03-06T06:00:02.000160","MEAN_MOTION":15.97917699,"ECCENTRICITY":0.00015348,"INCLINATION":42.9975,"RA_OF_ASC_NODE":76.106,"ARG_OF_PERICENTER":267.7938,"MEAN_ANOMALY":288.7781,"EPHEMERIS_TYPE":0,"CLASSIFICATION_TYPE":"U","NORAD_CAT_ID":68011,"ELEMENT_SET_NO":999,"REV_AT_EPOCH":232,"BSTAR":-0.0030507357,"MEAN_MOTION_DOT":-0.01439916,"MEAN_MOTION_DDOT":0.00062475501},{"OBJECT_NAME":"STARLINK-36936","OBJECT_ID":"2026-039AC","EPOCH":"2026-03-06T06:00:02.000160","MEAN_MOTION":15.98191581,"ECCENTRICITY":0.00015854,"INCLINATION":42.9975,"RA_OF_ASC_NODE":76.0957,"ARG_OF_PERICENTER":270.5751,"MEAN_ANOMALY":289.8959,"EPHEMERIS_TYPE":0,"CLASSIFICATION_TYPE":"U","NORAD_CAT_ID":68012,"ELEMENT_SET_NO":999,"REV_AT_EPOCH":232,"BSTAR":-0.0030110567,"MEAN_MOTION_DOT":-0.01443118,"MEAN_MOTION_DDOT":0.00062911166},{"OBJECT_NAME":"STARLINK-36967","OBJECT_ID":"2026-039AD","EPOCH":"2026-03-06T06:00:02.000160","MEAN_MOTION":15.97644918,"ECCENTRICITY":0.00015455,"INCLINATION":42.9975,"RA_OF_ASC_NODE":76.1159,"ARG_OF_PERICENTER":270.8717,"MEAN_ANOMALY":281.5988,"EPHEMERIS_TYPE":0,"CLASSIFICATION_TYPE":"U","NORAD_CAT_ID":68013,"ELEMENT_SET_NO":999,"REV_AT_EPOCH":232,"BSTAR":-0.003106675,"MEAN_MOTION_DOT":-0.01444122,"MEAN_MOTION_DDOT":0.00062632267},{"OBJECT_NAME":"STARLINK-36985","OBJECT_ID":"2026-039AE","EPOCH":"2026-03-06T06:00:02.000160","MEAN_MOTION":15.98053375,"ECCENTRICITY":0.00015963,"INCLINATION":42.9975,"RA_OF_ASC_NODE":76.1011,"ARG_OF_PERICENTER":270.0339,"MEAN_ANOMALY":288.4182,"EPHEMERIS_TYPE":0,"CLASSIFICATION_TYPE":"U","NORAD_CAT_ID":68014,"ELEMENT_SET_NO":999,"REV_AT_EPOCH":232,"BSTAR":-0.0030375986,"MEAN_MOTION_DOT":-0.01444593,"MEAN_MOTION_DDOT":0.00062937978},{"OBJECT_NAME":"OBJECT A","OBJECT_ID":"2026-040A","EPOCH":"2026-03-05T20:59:01.978080","MEAN_MOTION":16.11618122,"ECCENTRICITY":0.00013275,"INCLINATION":97.2861,"RA_OF_ASC_NODE":12.6592,"ARG_OF_PERICENTER":36.5206,"MEAN_ANOMALY":323.6169,"EPHEMERIS_TYPE":0,"CLASSIFICATION_TYPE":"U","NORAD_CAT_ID":68015,"ELEMENT_SET_NO":999,"REV_AT_EPOCH":72,"BSTAR":9.9844e-6,"MEAN_MOTION_DOT":9.585e-5,"MEAN_MOTION_DDOT":2.362899e-6},{"OBJECT_NAME":"OBJECT B","OBJECT_ID":"2026-040B","EPOCH":"2026-03-05T20:58:35.946624","MEAN_MOTION":16.11809964,"ECCENTRICITY":0.00012403,"INCLINATION":97.2862,"RA_OF_ASC_NODE":12.6596,"ARG_OF_PERICENTER":28.7023,"MEAN_ANOMALY":331.4329,"EPHEMERIS_TYPE":0,"CLASSIFICATION_TYPE":"U","NORAD_CAT_ID":68016,"ELEMENT_SET_NO":999,"REV_AT_EPOCH":72,"BSTAR":-3.6909654e-5,"MEAN_MOTION_DOT":-0.00039361,"MEAN_MOTION_DDOT":2.99416e-6},{"OBJECT_NAME":"OBJECT C","OBJECT_ID":"2026-040C","EPOCH":"2026-03-05T23:57:13.207392","MEAN_MOTION":16.11778226,"ECCENTRICITY":6.434e-5,"INCLINATION":97.2865,"RA_OF_ASC_NODE":12.7983,"ARG_OF_PERICENTER":79.3353,"MEAN_ANOMALY":280.8005,"EPHEMERIS_TYPE":0,"CLASSIFICATION_TYPE":"U","NORAD_CAT_ID":68017,"ELEMENT_SET_NO":999,"REV_AT_EPOCH":74,"BSTAR":2.7875773e-5,"MEAN_MOTION_DOT":0.00028377,"MEAN_MOTION_DDOT":2.706731e-6},{"OBJECT_NAME":"OBJECT D","OBJECT_ID":"2026-040D","EPOCH":"2026-03-05T23:57:40.236768","MEAN_MOTION":16.11560084,"ECCENTRICITY":8.825e-5,"INCLINATION":97.2862,"RA_OF_ASC_NODE":12.7971,"ARG_OF_PERICENTER":91.8438,"MEAN_ANOMALY":268.2948,"EPHEMERIS_TYPE":0,"CLASSIFICATION_TYPE":"U","NORAD_CAT_ID":68018,"ELEMENT_SET_NO":999,"REV_AT_EPOCH":74,"BSTAR":2.6870429e-5,"MEAN_MOTION_DOT":0.00026925,"MEAN_MOTION_DDOT":2.665855e-6},{"OBJECT_NAME":"OBJECT E","OBJECT_ID":"2026-040E","EPOCH":"2026-03-05T23:56:48.369120","MEAN_MOTION":16.11975695,"ECCENTRICITY":0.00015715,"INCLINATION":97.2864,"RA_OF_ASC_NODE":12.7985,"ARG_OF_PERICENTER":117.0515,"MEAN_ANOMALY":243.093,"EPHEMERIS_TYPE":0,"CLASSIFICATION_TYPE":"U","NORAD_CAT_ID":68019,"ELEMENT_SET_NO":999,"REV_AT_EPOCH":74,"BSTAR":1.3001081e-5,"MEAN_MOTION_DOT":0.00013027,"MEAN_MOTION_DDOT":2.403282e-6},{"OBJECT_NAME":"OBJECT F","OBJECT_ID":"2026-040F","EPOCH":"2026-03-05T23:57:01.725696","MEAN_MOTION":16.1185392,"ECCENTRICITY":0.00010666,"INCLINATION":97.2866,"RA_OF_ASC_NODE":12.798,"ARG_OF_PERICENTER":111.5184,"MEAN_ANOMALY":248.6215,"EPHEMERIS_TYPE":0,"CLASSIFICATION_TYPE":"U","NORAD_CAT_ID":68020,"ELEMENT_SET_NO":999,"REV_AT_EPOCH":74,"BSTAR":-5.539195e-6,"MEAN_MOTION_DOT":-6.546e-5,"MEAN_MOTION_DDOT":2.330995e-6},{"OBJECT_NAME":"OBJECT G","OBJECT_ID":"2026-040G","EPOCH":"2026-03-05T23:56:35.251008","MEAN_MOTION":16.12025112,"ECCENTRICITY":0.00014535,"INCLINATION":97.286,"RA_OF_ASC_NODE":12.7982,"ARG_OF_PERICENTER":110.0366,"MEAN_ANOMALY":250.1075,"EPHEMERIS_TYPE":0,"CLASSIFICATION_TYPE":"U","NORAD_CAT_ID":68021,"ELEMENT_SET_NO":999,"REV_AT_EPOCH":74,"BSTAR":-0.00011422996,"MEAN_MOTION_DOT":-0.00122004,"MEAN_MOTION_DDOT":8.892241e-6},{"OBJECT_NAME":"OBJECT H","OBJECT_ID":"2026-040H","EPOCH":"2026-03-05T23:56:21.579072","MEAN_MOTION":16.12170074,"ECCENTRICITY":0.00010784,"INCLINATION":97.2863,"RA_OF_ASC_NODE":12.799,"ARG_OF_PERICENTER":103.3373,"MEAN_ANOMALY":256.8033,"EPHEMERIS_TYPE":0,"CLASSIFICATION_TYPE":"U","NORAD_CAT_ID":68022,"ELEMENT_SET_NO":999,"REV_AT_EPOCH":74,"BSTAR":-1.0943582e-5,"MEAN_MOTION_DOT":-0.00012465,"MEAN_MOTION_DDOT":2.380256e-6},{"OBJECT_NAME":"OBJECT J","OBJECT_ID":"2026-040J","EPOCH":"2026-03-05T23:56:08.659680","MEAN_MOTION":16.12265508,"ECCENTRICITY":8.826e-5,"INCLINATION":97.2861,"RA_OF_ASC_NODE":12.7981,"ARG_OF_PERICENTER":75.6591,"MEAN_ANOMALY":284.4792,"EPHEMERIS_TYPE":0,"CLASSIFICATION_TYPE":"U","NORAD_CAT_ID":68023,"ELEMENT_SET_NO":999,"REV_AT_EPOCH":74,"BSTAR":1.8645808e-5,"MEAN_MOTION_DOT":0.00019384,"MEAN_MOTION_DDOT":2.505439e-6},{"OBJECT_NAME":"OBJECT K","OBJECT_ID":"2026-040K","EPOCH":"2026-03-05T23:55:52.846752","MEAN_MOTION":16.1241082,"ECCENTRICITY":0.00011811,"INCLINATION":97.2861,"RA_OF_ASC_NODE":12.7994,"ARG_OF_PERICENTER":130.9298,"MEAN_ANOMALY":229.209,"EPHEMERIS_TYPE":0,"CLASSIFICATION_TYPE":"U","NORAD_CAT_ID":68024,"ELEMENT_SET_NO":999,"REV_AT_EPOCH":74,"BSTAR":-8.71396e-7,"MEAN_MOTION_DOT":-1.683e-5,"MEAN_MOTION_DDOT":2.318654e-6},{"OBJECT_NAME":"OBJECT L","OBJECT_ID":"2026-040L","EPOCH":"2026-03-05T23:55:24.686400","MEAN_MOTION":16.12653204,"ECCENTRICITY":0.00013474,"INCLINATION":97.2861,"RA_OF_ASC_NODE":12.7997,"ARG_OF_PERICENTER":98.166,"MEAN_ANOMALY":261.9778,"EPHEMERIS_TYPE":0,"CLASSIFICATION_TYPE":"U","NORAD_CAT_ID":68025,"ELEMENT_SET_NO":999,"REV_AT_EPOCH":74,"BSTAR":4.2449714e-5,"MEAN_MOTION_DOT":0.0004628,"MEAN_MOTION_DDOT":3.359457e-6}]
