STARLINK-36953          
1 68010U 26039AA  26065.25002315 -.01450188  63210-3 -30952-2 0  9997
2 68010  42.9975  76.1109 0001610 266.6188 287.9572 15.97787095  2327
STARLINK-36991          
1 68011U 26039AB  26065.25002315 -.01439916  62476-3 -30507-2 0  9993
2 68011  42.9975  76.1060 0001534 267.7938 288.7781 15.97917699  2320
STARLINK-36936          
1 68012U 26039AC  26065.25002315 -.01443118  62911-3 -30111-2 0  9998
2 68012  42.9975  76.0957 0001585 270.5751 289.8959 15.98191581  2320
STARLINK-36967          
1 68013U 26039AD  26065.25002315 -.01444122  62632-3 -31067-2 0  9996
2 68013  42.9975  76.1159 0001545 270.8717 281.5988 15.97644918  2324
STARLINK-36985          
1 68014U 26039AE  26065.25002315 -.01444593  62938-3 -30376-2 0  9990
2 68014  42.9975  76.1011 0001596 270.0339 288.4182 15.98053375  2324
OBJECT A                
1 68015U 26040A   26064.87432845  .00009585  23629-5  99844-5 0  9994
2 68015  97.2861  12.6592 0001327  36.5206 323.6169 16.11618122   723
OBJECT B                
1 68016U 26040B   26064.87402716 -.00039361  29942-5 -36910-4 0  9994
2 68016  97.2862  12.6596 0001240  28.7023 331.4329 16.11809964   724
OBJECT C                
1 68017U 26040C   26064.99806953  .00028377  27067-5  27876-4 0  9999
2 68017  97.2865  12.7983 0000643  79.3353 280.8005 16.11778226   749
OBJECT D                
1 68018U 26040D   26064.99838237  .00026925  26659-5  26870-4 0  9996
2 68018  97.2862  12.7971 0000882  91.8438 268.2948 16.11560084   749
OBJECT E                
1 68019U 26040E   26064.99778205  .00013027  24033-5  13001-4 0  9990
2 68019  97.2864  12.7985 0001571 117.0515 243.0930 16.11975695   740
OBJECT F                
1 68020U 26040F   26064.99793664 -.00006546  23310-5 -55392-5 0  9995
2 68020  97.2866  12.7980 0001066 111.5184 248.6215 16.11853920   742
OBJECT G                
1 68021U 26040G   26064.99763022 -.00122004  88922-5 -11423-3 0  9994
2 68021  97.2860  12.7982 0001453 110.0366 250.1075 16.12025112   742
OBJECT H                
1 68022U 26040H   26064.99747198 -.00012465  23803-5 -10944-4 0  9995
2 68022  97.2863  12.7990 0001078 103.3373 256.8033 16.12170074   746
OBJECT J                
1 68023U 26040J   26064.99732245  .00019384  25054-5  18646-4 0  9995
2 68023  97.2861  12.7981 0000882  75.6591 284.4792 16.12265508   746
OBJECT K                
1 68024U 26040K   26064.99713943 -.00001683  23187-5 -87140-6 0  9997
2 68024  97.2861  12.7994 0001181 130.9298 229.2090 16.12410820   740
OBJECT L                
1 68025U 26040L   26064.99681350  .00046280  33595-5  42450-4 0  9991
2 68025  97.2861  12.7997 0001347  98.1660 261.9778 16.12653204   747
